GLOBAL-31               
1 63027U 25033B   26197.42633383  .00005223  00000+0  14562-3 0  9990
2 63027  58.9962 198.0037 0012103  57.2566 302.9674 15.38324799 78822
GLOBAL-32               
1 64231U 25118B   26197.62423595  .00008163  00000+0  21494-3 0  9994
2 64231  58.9940  13.4004 0016640  61.9984 298.2773 15.39311917 62779
GLOBAL-33               
1 66554U 25267A   26197.47668836  .00005732  00000+0  16062-3 0  9995
2 66554  42.0177 245.8113 0008015 102.5916 257.5820 15.37242689 36556
GLOBAL-34               
1 68098U 26043A   26197.60719681  .00005782  00000+0  18451-3 0  9992
2 68098  42.0215  50.6020 0001925 156.1435 203.9492 15.33122943 20343
