{"fetched_at":"2026-07-17T06:38:15.228Z","source":"https://celestrak.org/NORAD/elements/gp.php?NAME=GLOBAL&FORMAT=JSON","constellation":"blacksky-gen3","records":[{"OBJECT_NAME":"GLOBAL-31","OBJECT_ID":"2025-033B","EPOCH":"2026-07-16T10:13:55.242912","CLASSIFICATION_TYPE":"U","MEAN_MOTION":15.38324799,"ECCENTRICITY":0.0012103,"INCLINATION":58.9962,"RA_OF_ASC_NODE":198.0037,"ARG_OF_PERICENTER":57.2566,"MEAN_ANOMALY":302.9674,"EPHEMERIS_TYPE":0,"NORAD_CAT_ID":63027,"ELEMENT_SET_NO":999,"REV_AT_EPOCH":7882,"BSTAR":0.00014562,"MEAN_MOTION_DOT":0.00005223,"MEAN_MOTION_DDOT":0},{"OBJECT_NAME":"GLOBAL-32","OBJECT_ID":"2025-118B","EPOCH":"2026-07-16T14:58:53.986080","CLASSIFICATION_TYPE":"U","MEAN_MOTION":15.39311917,"ECCENTRICITY":0.001664,"INCLINATION":58.994,"RA_OF_ASC_NODE":13.4004,"ARG_OF_PERICENTER":61.9984,"MEAN_ANOMALY":298.2773,"EPHEMERIS_TYPE":0,"NORAD_CAT_ID":64231,"ELEMENT_SET_NO":999,"REV_AT_EPOCH":6277,"BSTAR":0.00021494,"MEAN_MOTION_DOT":0.00008163,"MEAN_MOTION_DDOT":0},{"OBJECT_NAME":"GLOBAL-33","OBJECT_ID":"2025-267A","EPOCH":"2026-07-16T11:26:25.874304","CLASSIFICATION_TYPE":"U","MEAN_MOTION":15.37242689,"ECCENTRICITY":0.0008015,"INCLINATION":42.0177,"RA_OF_ASC_NODE":245.8113,"ARG_OF_PERICENTER":102.5916,"MEAN_ANOMALY":257.582,"EPHEMERIS_TYPE":0,"NORAD_CAT_ID":66554,"ELEMENT_SET_NO":999,"REV_AT_EPOCH":3655,"BSTAR":0.00016062,"MEAN_MOTION_DOT":0.00005732,"MEAN_MOTION_DDOT":0},{"OBJECT_NAME":"GLOBAL-34","OBJECT_ID":"2026-043A","EPOCH":"2026-07-16T14:34:21.804384","CLASSIFICATION_TYPE":"U","MEAN_MOTION":15.33122943,"ECCENTRICITY":0.0001925,"INCLINATION":42.0215,"RA_OF_ASC_NODE":50.602,"ARG_OF_PERICENTER":156.1435,"MEAN_ANOMALY":203.9492,"EPHEMERIS_TYPE":0,"NORAD_CAT_ID":68098,"ELEMENT_SET_NO":999,"REV_AT_EPOCH":2034,"BSTAR":0.00018451,"MEAN_MOTION_DOT":0.00005782,"MEAN_MOTION_DDOT":0}]}
